ACS3                    
1 59588U 24077B   24242.18422755  .00000079  00000+0  12680-3 0  9998
2 59588  97.4001 293.3923 0018888 253.6623 106.2451 13.67701159 17387
